{"fetched_at":"2026-07-20T18:29:52.015Z","source":"https://celestrak.org/NORAD/elements/gp.php?NAME=UMBRA&FORMAT=JSON","constellation":"umbra","records":[{"OBJECT_NAME":"UMBRA-07","OBJECT_ID":"2023-174AT","EPOCH":"2026-07-20T02:51:38.971584","CLASSIFICATION_TYPE":"U","MEAN_MOTION":15.09665241,"ECCENTRICITY":0.00017028,"INCLINATION":97.3769,"RA_OF_ASC_NODE":255.6436,"ARG_OF_PERICENTER":356.0171,"MEAN_ANOMALY":4.1045,"EPHEMERIS_TYPE":0,"NORAD_CAT_ID":58297,"ELEMENT_SET_NO":999,"REV_AT_EPOCH":14838,"BSTAR":0.00029530347,"MEAN_MOTION_DOT":0.00004694,"MEAN_MOTION_DDOT":0},{"OBJECT_NAME":"UMBRA-09","OBJECT_ID":"2024-149CB","EPOCH":"2026-07-20T03:31:22.328544","CLASSIFICATION_TYPE":"U","MEAN_MOTION":15.18939221,"ECCENTRICITY":0.0002152,"INCLINATION":97.6962,"RA_OF_ASC_NODE":288.9384,"ARG_OF_PERICENTER":192.2275,"MEAN_ANOMALY":167.8907,"EPHEMERIS_TYPE":0,"NORAD_CAT_ID":60541,"ELEMENT_SET_NO":999,"REV_AT_EPOCH":10572,"BSTAR":0.00043611367,"MEAN_MOTION_DOT":0.00009043,"MEAN_MOTION_DDOT":0},{"OBJECT_NAME":"UMBRA-10","OBJECT_ID":"2024-149CH","EPOCH":"2026-07-20T03:30:43.309440","CLASSIFICATION_TYPE":"U","MEAN_MOTION":15.1893412,"ECCENTRICITY":0.00019688,"INCLINATION":97.6966,"RA_OF_ASC_NODE":288.9685,"ARG_OF_PERICENTER":158.2895,"MEAN_ANOMALY":201.8422,"EPHEMERIS_TYPE":0,"NORAD_CAT_ID":60547,"ELEMENT_SET_NO":999,"REV_AT_EPOCH":10573,"BSTAR":0.00040215274,"MEAN_MOTION_DOT":0.00008331,"MEAN_MOTION_DDOT":0},{"OBJECT_NAME":"UMBRA-11","OBJECT_ID":"2025-276CL","EPOCH":"2026-07-20T03:28:52.896288","CLASSIFICATION_TYPE":"U","MEAN_MOTION":15.27895735,"ECCENTRICITY":0.00031682,"INCLINATION":97.4178,"RA_OF_ASC_NODE":275.5976,"ARG_OF_PERICENTER":172.2237,"MEAN_ANOMALY":187.9052,"EPHEMERIS_TYPE":0,"NORAD_CAT_ID":66748,"ELEMENT_SET_NO":999,"REV_AT_EPOCH":3552,"BSTAR":0.00045760841,"MEAN_MOTION_DOT":0.00012396,"MEAN_MOTION_DDOT":0},{"OBJECT_NAME":"UMBRA-12","OBJECT_ID":"2026-004J","EPOCH":"2026-07-19T23:00:03.480768","CLASSIFICATION_TYPE":"U","MEAN_MOTION":14.89554966,"ECCENTRICITY":0.00070929,"INCLINATION":97.803,"RA_OF_ASC_NODE":199.2807,"ARG_OF_PERICENTER":40.052,"MEAN_ANOMALY":320.1219,"EPHEMERIS_TYPE":0,"NORAD_CAT_ID":67371,"ELEMENT_SET_NO":999,"REV_AT_EPOCH":2818,"BSTAR":0.00024723429,"MEAN_MOTION_DOT":0.00002303,"MEAN_MOTION_DDOT":0}]}
