UMBRA-07                
1 58297U 23174AT  26201.11920106  .00004694  00000+0  29530-3 0  9993
2 58297  97.3769 255.6436 0001702 356.0171   4.1045 15.09665241148385
UMBRA-09                
1 60541U 24149CB  26201.14678621  .00009043  00000+0  43611-3 0  9995
2 60541  97.6962 288.9384 0002152 192.2275 167.8907 15.18939221105721
UMBRA-10                
1 60547U 24149CH  26201.14633460  .00008331  00000+0  40215-3 0  9999
2 60547  97.6966 288.9685 0001968 158.2895 201.8422 15.18934120105734
UMBRA-11                
1 66748U 25276CL  26201.14505667  .00012396  00000+0  45761-3 0  9994
2 66748  97.4178 275.5976 0003168 172.2237 187.9052 15.27895735 35521
UMBRA-12                
1 67371U 26004J   26200.95837362  .00002303  00000+0  24723-3 0  9997
2 67371  97.8030 199.2807 0007092  40.0520 320.1219 14.89554966 28182
